OBJECT_NAME,OBJECT_ID,EPOCH,MEAN_MOTION,ECCENTRICITY,INCLINATION,RA_OF_ASC_NODE,ARG_OF_PERICENTER,MEAN_ANOMALY,EPHEMERIS_TYPE,CLASSIFICATION_TYPE,NORAD_CAT_ID,ELEMENT_SET_NO,REV_AT_EPOCH,BSTAR,MEAN_MOTION_DOT,MEAN_MOTION_DDOT
ONEWEB-0198,2021-031G,2026-07-13T19:00:12.848832,13.14502408,.000248,87.8961,284.4085,102.0155,258.1252,0,U,48216,999,25198,.17313E-3,.77E-6,0
ONEWEB-0189,2021-031H,2026-07-13T19:18:16.731648,13.14502191,.0002334,87.8971,284.3953,99.8927,260.2466,0,U,48217,999,25172,-.29144E-3,-.95E-6,0
ONEWEB-0196,2021-031J,2026-07-13T18:46:18.770016,13.14502116,.0002157,87.8976,284.4073,101.0301,259.1072,0,U,48218,999,25172,.51428E-3,.203E-5,0
ONEWEB-0183,2021-031K,2026-07-13T18:09:46.166976,13.14502238,.0001964,87.8966,284.4111,94.5857,265.5497,0,U,48219,999,25181,-.16469E-3,-.48E-6,0
ONEWEB-0185,2021-031L,2026-07-13T18:47:25.874304,13.14503381,.000222,87.8976,284.4013,90.1755,269.9629,0,U,48220,999,25174,.51451E-3,.204E-5,0
ONEWEB-0187,2021-031M,2026-07-13T18:18:42.086304,13.14502788,.0002189,87.8967,284.4192,97.9331,262.2047,0,U,48221,999,25175,.2003E-3,.87E-6,0
ONEWEB-0192,2021-031N,2026-07-13T17:35:31.121376,13.14502857,.000211,87.8967,284.4152,100.8143,259.3224,0,U,48222,999,25166,-.56755E-3,-.198E-5,0
ONEWEB-0219,2021-031P,2026-07-13T18:55:25.548096,13.14503523,.0002201,87.8978,284.3970,95.4701,264.6680,0,U,48223,999,25187,.46763E-3,.186E-5,0
ONEWEB-0202,2021-031Q,2026-07-13T18:28:03.015840,13.14502437,.0002617,87.8969,284.4135,108.1929,251.9486,0,U,48224,999,25185,.59669E-3,.234E-5,0
ONEWEB-0204,2021-031R,2026-07-13T19:17:07.348128,13.14499470,.0001559,87.8964,284.4020,103.5889,256.5414,0,U,48225,999,25175,-.27789E-3,-.9E-6,0
ONEWEB-0205,2021-031S,2026-07-13T18:41:44.481984,13.14502316,.000231,87.8977,284.4009,96.3315,263.8078,0,U,48226,999,25176,.55976E-3,.22E-5,0
ONEWEB-0206,2021-031T,2026-07-13T18:02:54.667104,13.14502010,.0001894,87.8969,284.4067,101.8859,258.2483,0,U,48227,999,25171,-.20193E-3,-.62E-6,0
ONEWEB-0182,2021-031U,2026-07-13T17:56:03.091200,13.14503955,.0001913,87.8969,284.4138,94.4618,265.6731,0,U,48228,999,25192,-.46281E-3,-.159E-5,0
ONEWEB-0186,2021-031V,2026-07-13T18:12:03.026304,13.14503038,.0002117,87.8975,284.4053,99.2308,260.9061,0,U,48229,999,25187,.46822E-4,.3E-6,0
ONEWEB-0181,2021-031W,2026-07-13T17:40:03.582912,13.14501247,.0002266,87.8960,284.4340,98.6431,261.4955,0,U,48230,999,25172,-.81614E-3,-.29E-5,0
ONEWEB-0188,2021-031X,2026-07-13T18:34:53.123808,13.14502095,.0002056,87.8961,284.4259,98.0016,262.1347,0,U,48231,999,25163,.60506E-3,.237E-5,0
ONEWEB-0220,2021-031Y,2026-07-13T17:42:21.517920,13.14496480,.0002159,87.8981,284.4096,94.0895,266.0482,0,U,48232,999,25189,-.15502E-2,-.562E-5,0
ONEWEB-0165,2021-031Z,2026-07-13T18:23:28.479840,13.14503747,.000238,87.8964,284.4162,105.1757,254.9636,0,U,48233,999,25185,.46019E-3,.183E-5,0
ONEWEB-0199,2021-031AA,2026-07-13T18:00:38.098944,13.14502204,.0001852,87.8971,284.4066,101.7566,258.3772,0,U,48234,999,25175,-.28008E-3,-.91E-6,0
ONEWEB-0203,2021-031AB,2026-07-13T17:46:55.641792,13.14501298,.0002061,87.8976,284.4106,105.3547,254.7811,0,U,48235,999,25176,-.62665E-3,-.22E-5,0
ONEWEB-0197,2021-031AC,2026-07-13T17:10:11.481024,13.14501954,.0002035,87.8974,284.3984,89.2690,270.8673,0,U,48236,999,25167,.17158E-3,.76E-6,0
ONEWEB-0194,2021-031AD,2026-07-13T18:30:18.849600,13.14503995,.0001904,87.8969,284.4122,106.1624,253.9715,0,U,48237,999,25185,.55709E-3,.219E-5,0
ONEWEB-0193,2021-031AE,2026-07-13T18:53:09.604608,13.14501968,.0001803,87.8971,284.3990,113.6878,246.4441,0,U,48238,999,25180,.39773E-3,.16E-5,0
ONEWEB-0191,2021-031AF,2026-07-13T19:09:07.682976,13.14506172,.0001913,87.8977,284.3976,95.0170,265.1178,0,U,48239,999,25166,-.19601E-4,.6E-7,0
ONEWEB-0195,2021-031AG,2026-07-13T18:36:01.811808,13.14503225,.0002503,87.8984,284.4011,95.3027,264.8388,0,U,48240,999,25164,.63596E-3,.249E-5,0
ONEWEB-0201,2021-031AH,2026-07-13T18:19:05.625984,13.14502418,.0002031,87.8967,284.4192,92.1598,267.9765,0,U,48241,999,25187,.30346E-3,.125E-5,0
ONEWEB-0207,2021-031AJ,2026-07-13T17:50:19.927680,13.14500715,.0002,87.8968,284.4102,92.8260,267.3099,0,U,48242,999,25178,-.59755E-3,-.209E-5,0
ONEWEB-0208,2021-031AK,2026-07-13T19:13:42.174048,13.14501929,.0002377,87.8975,284.4026,104.1518,255.9876,0,U,48243,999,25180,-.16392E-3,-.48E-6,0
ONEWEB-0200,2021-031AL,2026-07-13T18:21:11.585952,13.14502333,.0002112,87.8979,284.3997,98.5131,261.6238,0,U,48244,999,25172,.21109E-3,.91E-6,0
ONEWEB-0217,2021-031AM,2026-07-13T18:44:01.400064,13.14502729,.0002387,87.8971,284.4016,103.5560,256.5836,0,U,48245,999,25167,.58585E-3,.23E-5,0
