ONEWEB-0198             
1 48216U 21031G   26194.79181538  .00000077  00000+0  17313-3 0  9993
2 48216  87.8961 284.4085 0002480 102.0155 258.1252 13.14502408251989
ONEWEB-0189             
1 48217U 21031H   26194.80436032 -.00000095  00000+0 -29144-3 0  9995
2 48217  87.8971 284.3953 0002334  99.8927 260.2466 13.14502191251724
ONEWEB-0196             
1 48218U 21031J   26194.78216169  .00000203  00000+0  51428-3 0  9999
2 48218  87.8976 284.4073 0002157 101.0301 259.1072 13.14502116251726
ONEWEB-0183             
1 48219U 21031K   26194.75678434 -.00000048  00000+0 -16469-3 0  9999
2 48219  87.8966 284.4111 0001964  94.5857 265.5497 13.14502238251813
ONEWEB-0185             
1 48220U 21031L   26194.78293836  .00000204  00000+0  51451-3 0  9995
2 48220  87.8976 284.4013 0002220  90.1755 269.9629 13.14503381251749
ONEWEB-0187             
1 48221U 21031M   26194.76298711  .00000087  00000+0  20030-3 0  9999
2 48221  87.8967 284.4192 0002189  97.9331 262.2047 13.14502788251758
ONEWEB-0192             
1 48222U 21031N   26194.73299909 -.00000198  00000+0 -56755-3 0  9995
2 48222  87.8967 284.4152 0002110 100.8143 259.3224 13.14502857251665
ONEWEB-0219             
1 48223U 21031P   26194.78849014  .00000186  00000+0  46763-3 0  9992
2 48223  87.8978 284.3970 0002201  95.4701 264.6680 13.14503523251874
ONEWEB-0202             
1 48224U 21031Q   26194.76947935  .00000234  00000+0  59669-3 0  9995
2 48224  87.8969 284.4135 0002617 108.1929 251.9486 13.14502437251858
ONEWEB-0204             
1 48225U 21031R   26194.80355727 -.00000090  00000+0 -27789-3 0  9993
2 48225  87.8964 284.4020 0001559 103.5889 256.5414 13.14499470251758
ONEWEB-0205             
1 48226U 21031S   26194.77898706  .00000220  00000+0  55976-3 0  9991
2 48226  87.8977 284.4009 0002310  96.3315 263.8078 13.14502316251761
ONEWEB-0206             
1 48227U 21031T   26194.75202161 -.00000062  00000+0 -20193-3 0  9993
2 48227  87.8969 284.4067 0001894 101.8859 258.2483 13.14502010251712
ONEWEB-0182             
1 48228U 21031U   26194.74725800 -.00000159  00000+0 -46281-3 0  9996
2 48228  87.8969 284.4138 0001913  94.4618 265.6731 13.14503955251924
ONEWEB-0186             
1 48229U 21031V   26194.75836836  .00000030  00000+0  46822-4 0  9998
2 48229  87.8975 284.4053 0002117  99.2308 260.9061 13.14503038251874
ONEWEB-0181             
1 48230U 21031W   26194.73615258 -.00000290  00000+0 -81614-3 0  9998
2 48230  87.8960 284.4340 0002266  98.6431 261.4955 13.14501247251726
ONEWEB-0188             
1 48231U 21031X   26194.77422597  .00000237  00000+0  60506-3 0  9991
2 48231  87.8961 284.4259 0002056  98.0016 262.1347 13.14502095251632
ONEWEB-0220             
1 48232U 21031Y   26194.73774905 -.00000562  00000+0 -15502-2 0  9999
2 48232  87.8981 284.4096 0002159  94.0895 266.0482 13.14496480251890
ONEWEB-0165             
1 48233U 21031Z   26194.76630185  .00000183  00000+0  46019-3 0  9999
2 48233  87.8964 284.4162 0002380 105.1757 254.9636 13.14503747251851
ONEWEB-0199             
1 48234U 21031AA  26194.75044096 -.00000091  00000+0 -28008-3 0  9997
2 48234  87.8971 284.4066 0001852 101.7566 258.3772 13.14502204251751
ONEWEB-0203             
1 48235U 21031AB  26194.74092178 -.00000220  00000+0 -62665-3 0  9992
2 48235  87.8976 284.4106 0002061 105.3547 254.7811 13.14501298251761
ONEWEB-0197             
1 48236U 21031AC  26194.71541066  .00000076  00000+0  17158-3 0  9999
2 48236  87.8974 284.3984 0002035  89.2690 270.8673 13.14501954251677
ONEWEB-0194             
1 48237U 21031AD  26194.77105150  .00000219  00000+0  55709-3 0  9999
2 48237  87.8969 284.4122 0001904 106.1624 253.9715 13.14503995251853
ONEWEB-0193             
1 48238U 21031AE  26194.78691672  .00000160  00000+0  39773-3 0  9998
2 48238  87.8971 284.3990 0001803 113.6878 246.4441 13.14501968251807
ONEWEB-0191             
1 48239U 21031AF  26194.79800559  .00000006  00000+0 -19601-4 0  9995
2 48239  87.8977 284.3976 0001913  95.0170 265.1178 13.14506172251669
ONEWEB-0195             
1 48240U 21031AG  26194.77502097  .00000249  00000+0  63596-3 0  9990
2 48240  87.8984 284.4011 0002503  95.3027 264.8388 13.14503225251643
ONEWEB-0201             
1 48241U 21031AH  26194.76325956  .00000125  00000+0  30346-3 0  9997
2 48241  87.8967 284.4192 0002031  92.1598 267.9765 13.14502418251870
ONEWEB-0207             
1 48242U 21031AJ  26194.74328620 -.00000209  00000+0 -59755-3 0  9997
2 48242  87.8968 284.4102 0002000  92.8260 267.3099 13.14500715251784
ONEWEB-0208             
1 48243U 21031AK  26194.80118257 -.00000048  00000+0 -16392-3 0  9999
2 48243  87.8975 284.4026 0002377 104.1518 255.9876 13.14501929251805
ONEWEB-0200             
1 48244U 21031AL  26194.76471743  .00000091  00000+0  21109-3 0  9995
2 48244  87.8979 284.3997 0002112  98.5131 261.6238 13.14502333251727
ONEWEB-0217             
1 48245U 21031AM  26194.78057176  .00000230  00000+0  58585-3 0  9991
2 48245  87.8971 284.4016 0002387 103.5560 256.5836 13.14502729251670
